NORAD_CAT_ID,OBJECT_NAME,OBJECT_TYPE,EPOCH,MEAN_MOTION,ECCENTRICITY,INCLINATION,RA_OF_ASC_NODE,ARG_OF_PERICENTER,MEAN_ANOMALY,BSTAR,MEAN_MOTION_DOT,MEAN_MOTION_DDOT,TLE_LINE0,TLE_LINE1,TLE_LINE2,SEMIMAJOR_AXIS,PERIOD,APOGEE,PERIGEE,DECAYED
52003.0,STARLINK-3654,PAYLOAD,2022-09-02 22:00:01,15.08852905,0.0001181,53.2185,22.1908,83.2609,71.4058,-0.0018524999999999,-0.00029659,0.0,0 STARLINK-3654,1 52003U 22025AZ  22245.91668981 -.00029659  00000-0 -18525-2 0  9990,2 52003  53.2185  22.1908 0001181  83.2609  71.4058 15.08852905  1309,6917.840999999999,95.437,540.523,538.889,0.0
52003.0,STARLINK-3654,PAYLOAD,2022-09-03 14:00:01,15.08846751,0.0001238,53.2184,19.198,89.8389,87.9491,-0.0012814,-0.00020627,0.0,0 STARLINK-3654,1 52003U 22025AZ  22246.58334491 -.00020627  00000-0 -12814-2 0  9991,2 52003  53.2184  19.1980 0001238  89.8389  87.9491 15.08846751 28735,6917.86,95.437,540.581,538.868,0.0
52003.0,STARLINK-3654,PAYLOAD,2022-09-03 22:00:00,15.0884929,0.0001193999999999,53.218,17.7019,83.0688,106.3178,0.00054417,8.385e-05,0.0,0 STARLINK-3654,1 52003U 22025AZ  22246.91667824  .00008385  00000-0  54417-3 0  9998,2 52003  53.2180  17.7019 0001194  83.0688 106.3178 15.08849290  1300,6917.852,95.437,540.543,538.891,0.0
52003.0,STARLINK-3654,PAYLOAD,2022-09-04 14:00:01,15.08843838,0.0001339,53.218,14.7091,87.2895,125.328,-0.00081744,-0.00013275,0.0,0 STARLINK-3654,1 52003U 22025AZ  22247.58335648 -.00013275  00000-0 -81744-3 0  9997,2 52003  53.2180  14.7091 0001339  87.2895 125.3280 15.08843838  1301,6917.869000000002,95.437,540.66,538.807,0.0
52003.0,STARLINK-3654,PAYLOAD,2022-09-04 20:00:01,15.08836326,0.0001302,53.2179,13.5873,79.9671,51.3025,0.0036031999999999,0.00057519,0.0,0 STARLINK-3654,1 52003U 22025AZ  22247.83334491  .00057519  00000-0  36032-2 0  9996,2 52003  53.2179  13.5873 0001302  79.9671  51.3025 15.08836326 28920,6917.892,95.438,540.6569999999998,538.856,0.0
52003.0,STARLINK-3654,PAYLOAD,2022-09-05 14:00:01,15.08878331,0.0001422,53.2181,10.2198,83.7033,163.7282,-0.0032683,-0.00051982,0.0,0 STARLINK-3654,1 52003U 22025AZ  22248.58334491 -.00051982  00000-0 -32683-2 0  9997,2 52003  53.2181  10.2198 0001422  83.7033 163.7282 15.08878331 29033,6917.763000000001,95.435,540.612,538.645,0.0
52003.0,STARLINK-3654,PAYLOAD,2022-09-05 22:00:00,15.08855011,0.0001409999999999,53.2181,8.7233,79.9407,179.1077,-0.0041844,-0.00066297,0.0,0 STARLINK-3654,1 52003U 22025AZ  22248.91667824 -.00066297  00000-0 -41844-2 0  9997,2 52003  53.2181   8.7233 0001410  79.9407 179.1077 15.08855011  1307,6917.835,95.437,540.675,538.724,0.0
52003.0,STARLINK-3654,PAYLOAD,2022-09-06 14:00:01,15.08825592,0.0001530999999999,53.2186,5.7306,81.4589,200.7328,-8.4681e-05,-1.635e-05,0.0,0 STARLINK-3654,1 52003U 22025AZ  22249.58334491 -.00001635  00000-0 -84681-4 0  9995,2 52003  53.2186   5.7306 0001531  81.4589 200.7328 15.08825592  1304,6917.924,95.438,540.849,538.73,0.0
52003.0,STARLINK-3654,PAYLOAD,2022-09-06 22:00:00,15.088563699999998,0.0001408,53.2187,4.2342,79.1017,214.6586,-0.0037623,-0.00059695,0.0,0 STARLINK-3654,1 52003U 22025AZ  22249.91667824 -.00059695  00000-0 -37623-2 0  9992,2 52003  53.2187   4.2342 0001408  79.1017 214.6586 15.08856370  1300,6917.83,95.437,540.669,538.721,0.0
52003.0,STARLINK-3654,PAYLOAD,2022-09-07 14:00:01,15.08829476,0.0001405,53.2192,1.2417,79.0,237.922,-0.00015439,-2.743e-05,0.0,0 STARLINK-3654,1 52003U 22025AZ  22250.58334491 -.00002743  00000-0 -15439-3 0  9992,2 52003  53.2192   1.2417 0001405  79.0000 237.9220 15.08829476 29337,6917.913000000001,95.438,540.75,538.806,0.0
52003.0,STARLINK-3654,PAYLOAD,2022-09-07 22:00:00,15.08852613,0.0001341999999999,53.2192,359.7451,77.6572,250.8404,-0.0012854,-0.00020694,0.0,0 STARLINK-3654,1 52003U 22025AZ  22250.91667824 -.00020694  00000-0 -12854-2 0  9990,2 52003  53.2192 359.7451 0001342  77.6572 250.8404 15.08852613  1308,6917.842,95.437,540.635,538.778,0.0
52003.0,STARLINK-3654,PAYLOAD,2022-09-08 14:00:01,15.08832642,0.0001478,53.2196,356.75300000000016,79.05,272.6486,-0.00014307,-2.564e-05,0.0,0 STARLINK-3654,1 52003U 22025AZ  22251.58334491 -.00002564  00000-0 -14307-3 0  9997,2 52003  53.2196 356.7530 0001478  79.0500 272.6486 15.08832642  1306,6917.903,95.438,540.79,538.745,0.0
52003.0,STARLINK-3654,PAYLOAD,2022-09-08 22:00:00,15.08863471,0.0001361999999999,53.2194,355.2562,78.6064,284.6759,-0.0021519,-0.00034394,0.0,0 STARLINK-3654,1 52003U 22025AZ  22251.91667824 -.00034394  00000-0 -21519-2 0  9991,2 52003  53.2194 355.2562 0001362  78.6064 284.6759 15.08863471  1305,6917.809,95.436,540.616,538.731,0.0
52003.0,STARLINK-3654,PAYLOAD,2022-09-09 14:00:01,15.08837171,0.0001315999999999,53.2196,352.2645,78.3097,308.177,0.00011223,1.499e-05,0.0,0 STARLINK-3654,1 52003U 22025AZ  22252.58334491  .00001499  00000-0  11223-3 0  9996,2 52003  53.2196 352.2645 0001316  78.3097 308.1770 15.08837171  1301,6917.889,95.438,540.664,538.844,0.0
52003.0,STARLINK-3654,PAYLOAD,2022-09-09 22:00:00,15.08875286,0.0001281,53.2191,350.7677,78.0293,320.0431,-0.004785,-0.00075713,0.0,0 STARLINK-3654,1 52003U 22025AZ  22252.91667824 -.00075713  00000-0 -47850-2 0  9998,2 52003  53.2191 350.7677 0001281  78.0293 320.0431 15.08875286  1306,6917.773,95.435,540.524,538.751,0.0
52003.0,STARLINK-3654,PAYLOAD,2022-09-10 14:00:01,15.08841359,0.0001351,53.2191,347.776,79.1843,342.0868,-0.00067726,-0.00011051,0.0,0 STARLINK-3654,1 52003U 22025AZ  22253.58334491 -.00011051  00000-0 -67726-3 0  9993,2 52003  53.2191 347.7760 0001351  79.1843 342.0868 15.08841359  1308,6917.876,95.437,540.6759999999998,538.807,0.0
52003.0,STARLINK-3654,PAYLOAD,2022-09-10 22:00:00,15.088466699999998,0.0001215,53.2187,346.2789,80.0338,352.8292,-0.0030893,-0.00049127,0.0,0 STARLINK-3654,1 52003U 22025AZ  22253.91667824 -.00049127  00000-0 -30893-2 0  9998,2 52003  53.2187 346.2789 0001215  80.0338 352.8292 15.08846670  1308,6917.86,95.437,540.566,538.884,0.0
52003.0,STARLINK-3654,PAYLOAD,2022-09-11 06:00:00,15.08824572,0.0001199999999999,53.2185,344.7819,88.0304,356.4211,0.002019,0.00031977,0.0,0 STARLINK-3654,1 52003U 22025AZ  22254.25001157  .00031977  00000-0  20190-2 0  9998,2 52003  53.2185 344.7819 0001200  88.0304 356.4211 15.08824572 29890,6917.928000000001,95.439,540.623,538.962,0.0
52003.0,STARLINK-3654,PAYLOAD,2022-09-11 14:00:01,15.08841348,0.0001258,53.2185,343.2874,76.9013,19.1471,0.00041746,6.362e-05,0.0,0 STARLINK-3654,1 52003U 22025AZ  22254.58334491  .00006362  00000-0  41746-3 0  9995,2 52003  53.2185 343.2874 0001258  76.9013  19.1471 15.08841348  1308,6917.876,95.437,540.612,538.871,0.0
52003.0,STARLINK-3654,PAYLOAD,2022-09-11 22:00:00,15.08860313,0.0001242999999999,53.2182,341.7901,78.6156,29.032,-0.0031177,-0.00049591,0.0,0 STARLINK-3654,1 52003U 22025AZ  22254.91667824 -.00049591  00000-0 -31177-2 0  9990,2 52003  53.2182 341.7901 0001243  78.6156  29.0320 15.08860313 29991,6917.818,95.436,540.543,538.823,0.0
52003.0,STARLINK-3654,PAYLOAD,2022-09-12 14:00:01,15.08813281,0.0001246,53.2181,338.7986,74.0381,56.8116,0.0012833,0.0002018,0.0,0 STARLINK-3654,1 52003U 22025AZ  22255.58334491  .00020180  00000-0  12833-2 0  9994,2 52003  53.2181 338.7986 0001246  74.0381  56.8116 15.08813281 30098,6917.962,95.439,540.689,538.965,0.0
52003.0,STARLINK-3654,PAYLOAD,2022-09-12 22:00:00,15.08855235,0.0001186,53.218,337.3011,75.3366,67.0902,-0.0014305,-0.00022991,0.0,0 STARLINK-3654,1 52003U 22025AZ  22255.91667824 -.00022991  00000-0 -14305-2 0  9990,2 52003  53.2180 337.3011 0001186  75.3366  67.0902 15.08855235  1305,6917.834,95.437,540.519,538.878,0.0
52003.0,STARLINK-3654,PAYLOAD,2022-09-13 14:00:01,15.0883716,0.0001434,53.218,334.3099,70.476,95.1547,0.00048229,7.395e-05,0.0,0 STARLINK-3654,1 52003U 22025AZ  22256.58334491  .00007395  00000-0  48229-3 0  9997,2 52003  53.2180 334.3099 0001434  70.4760  95.1547 15.08837160  1302,6917.889,95.438,540.746,538.762,0.0
52003.0,STARLINK-3654,PAYLOAD,2022-09-13 16:00:00,15.08834997,0.0001404,53.2178,333.9361,68.7835,189.747,0.00075961,0.0001182,0.0,0 STARLINK-3654,1 52003U 22025AZ  22256.66667824  .00011820  00000-0  75961-3 0  9996,2 52003  53.2178 333.9361 0001404  68.7835 189.7470 15.08834997 30252,6917.896,95.438,540.732,538.789,0.0
52003.0,STARLINK-3654,PAYLOAD,2022-09-13 22:00:00,15.08846894,0.0001344,53.2181,332.8119999999999,74.6898,102.5244,-0.0045071999999999,-0.00071323,0.0,0 STARLINK-3654,1 52003U 22025AZ  22256.91667824 -.00071323  00000-0 -45072-2 0  9999,2 52003  53.2181 332.8120 0001344  74.6898 102.5244 15.08846894  1300,6917.859,95.437,540.654,538.795,0.0
52003.0,STARLINK-3654,PAYLOAD,2022-09-14 06:00:00,15.08806551,0.0001357,53.2183,331.3151,80.1867,108.5984,0.00082701,0.00012886,0.0,0 STARLINK-3654,1 52003U 22025AZ  22257.25001157  .00012886  00000-0  82701-3 0  9996,2 52003  53.2183 331.3151 0001357  80.1867 108.5984 15.08806551 30341,6917.983,95.44,540.786,538.909,0.0
52003.0,STARLINK-3654,PAYLOAD,2022-09-14 14:00:01,15.08770544,0.0001386999999999,53.218,329.8217,71.0758,129.2749,0.0069315,0.00111566,0.0,0 STARLINK-3654,1 52003U 22025AZ  22257.58334491  .00111566  00000-0  69315-2 0  9992,2 52003  53.2180 329.8217 0001387  71.0758 129.2749 15.08770544  1309,6918.093000000003,95.442,540.9169999999998,538.998,0.0
52003.0,STARLINK-3654,PAYLOAD,2022-09-14 22:00:00,15.08806411,0.0001334,53.2178,328.3237,70.5221,141.393,0.0052418,0.00084054,0.0,0 STARLINK-3654,1 52003U 22025AZ  22257.91667824  .00084054  00000-0  52418-2 0  9995,2 52003  53.2178 328.3237 0001334  70.5221 141.3930 15.08806411  1303,6917.983,95.44,540.771,538.925,0.0
52003.0,STARLINK-3654,PAYLOAD,2022-09-15 14:00:01,15.08842858,0.0001405,53.2185,325.3313,66.638,168.4599,0.00085816,0.00013397,0.0,0 STARLINK-3654,1 52003U 22025AZ  22258.58334491  .00013397  00000-0  85816-3 0  9991,2 52003  53.2185 325.3313 0001405  66.6380 168.4599 15.08842858  1300,6917.871999999999,95.437,540.7090000000002,538.765,0.0
